OBJECT_NAME,OBJECT_ID,EPOCH,MEAN_MOTION,ECCENTRICITY,INCLINATION,RA_OF_ASC_NODE,ARG_OF_PERICENTER,MEAN_ANOMALY,EPHEMERIS_TYPE,CLASSIFICATION_TYPE,NORAD_CAT_ID,ELEMENT_SET_NO,REV_AT_EPOCH,BSTAR,MEAN_MOTION_DOT,MEAN_MOTION_DDOT
OSCAR 7 (AO-7),1974-089B,2026-07-17T11:45:13.243104,12.53698636,.001265,101.9906,212.0521,74.1265,93.8436,0,U,7530,999,36431,.25339E-4,-.42E-6,0
PHASE 3B (AO-10),1983-058B,2026-07-13T02:29:46.528800,2.05872336,.60022234,25.9345,215.2934,122.7887,309.2966,0,U,14129,999,29602,0,-.187E-5,0
UOSAT 2 (UO-11),1984-021B,2026-07-17T15:01:33.674016,14.90851944,.0009254,97.8078,163.8656,84.7526,275.4747,0,U,14781,999,26166,.54853E-4,.485E-5,0
LUSAT (LO-19),1990-005G,2026-07-17T12:45:01.433376,14.34131129,.0012598,98.8847,221.1720,115.0865,245.1628,0,U,20442,999,90674,.25584E-4,.25E-6,0
EYESAT A (AO-27),1993-061C,2026-07-17T15:02:03.179616,14.30949457,.0008619,98.6866,266.0266,19.0842,341.0662,0,U,22825,999,71135,.28072E-4,.29E-6,0
ITAMSAT (IO-26),1993-061D,2026-07-17T10:58:00.168096,14.31377092,.000879,98.6813,265.7777,2.8149,357.3082,0,U,22826,999,71164,.30552E-4,.36E-6,0
RADIO ROSTO (RS15),1994-085A,2026-07-17T15:00:02.319840,11.27583595,.0157009,64.8151,253.9910,358.2613,1.7747,0,U,23439,999,29933,.26301E-3,-.33E-6,0
JAS-2 (FO-29),1996-046B,2026-07-17T09:38:32.152128,13.53275797,.0350252,98.5218,43.1320,18.2236,343.1097,0,U,24278,999,47725,.16007E-4,-.19E-6,0
TECHSAT 1B (GO-32),1998-043D,2026-07-17T09:49:24.015072,14.24433604,.000225,99.0087,191.9327,111.4345,248.7073,0,U,25397,999,45563,.22342E-4,.5E-7,0
ISS (ZARYA),1998-067A,2026-07-17T13:44:50.076384,15.49033131,.0006795,51.6316,149.7201,306.9083,53.1282,0,U,25544,999,57646,.72724E-4,.3563E-4,0
PCSAT (NO-44),2001-043C,2026-07-17T13:00:24.645024,14.31965477,.0005892,67.0496,165.7597,266.8164,93.2264,0,U,26931,999,29479,.38081E-4,.19E-6,0
SAUDISAT 1C (SO-50),2002-058C,2026-07-17T13:35:59.912160,14.83100826,.0074455,64.5519,34.9873,256.8352,102.4439,0,U,27607,999,26896,.58139E-4,.339E-5,0
CUTE-1 (CO-55),2003-031E,2026-07-17T10:54:17.893728,14.24352364,.0010863,98.6744,206.6332,96.8604,263.3811,0,U,27844,999,19598,.74903E-4,.13E-5,0
CUBESAT XI-IV (CO-57),2003-031J,2026-07-17T10:59:35.247840,14.23635260,.0010618,98.6776,206.3252,113.4163,246.8133,0,U,27848,999,19568,.658E-4,.106E-5,0
MOZHAETS 4 (RS22),2003-042A,2026-07-17T16:59:07.457280,14.73517847,.001142,98.3471,23.9302,165.2774,285.4914,0,U,27939,999,22004,.13238E-3,.807E-5,0
CUBESAT XI-V,2005-043F,2026-07-16T23:00:13.929984,14.72704810,.0015312,98.3017,354.2118,110.0551,250.2305,0,U,28895,999,10613,.10709E-3,.631E-5,0
CUTE-1.7+APD II (CO-65),2008-021C,2026-07-17T16:09:36.684864,15.09713256,.000686,97.8298,180.7354,289.3603,70.6883,0,U,32785,999,98979,.13197E-3,.206E-4,0
SEEDS II (CO-66),2008-021J,2026-07-17T10:00:53.150112,15.33712210,.0003325,97.7528,197.7827,151.8458,208.2964,0,U,32791,999,99192,.30928E-3,.10001E-3,0
YUBILEINY (RS30),2008-025A,2026-07-17T16:19:23.483424,12.43180178,.0018674,82.5066,336.4706,243.1591,116.7579,0,U,32953,999,82348,-.85908E-3,-.11E-5,0
KKS-1 (KISEKI),2009-002H,2026-07-17T16:23:40.251264,14.83192330,.0007629,98.1172,121.6085,180.6725,179.4479,0,U,33499,999,94071,.75499E-4,.561E-5,0
SWISSCUBE,2009-051B,2026-07-17T16:22:26.527008,14.62533257,.0007946,98.4004,107.0987,112.4041,247.8002,0,U,35932,999,89361,.95101E-4,.433E-5,0
BEESAT-1,2009-051C,2026-07-17T16:59:00.358656,14.61763986,.0006241,98.3931,106.6958,123.4432,236.7366,0,U,35933,999,89364,.80631E-4,.353E-5,0
ITUPSAT1,2009-051E,2026-07-17T04:15:10.956960,14.60480346,.00082048,98.4015,105.3171,137.6090,222.5745,0,U,35935,999,89311,.79458509E-4,.337E-5,0
XIWANG-1 (HOPE-1),2009-072B,2026-07-17T17:16:07.163040,13.16437615,.0007592,100.4042,152.0665,159.2403,200.9020,0,U,36122,999,79702,-.13082E-2,-.544E-5,0
O/OREOS (USA 219),2010-062C,2026-07-17T11:09:51.386112,14.93856344,.0014112,71.9699,11.7456,0.6870,359.4317,0,U,37224,999,12116,.9729E-4,.971E-5,0
JUGNU,2011-058B,2026-07-17T12:35:45.210912,14.13783779,.0018626,19.9597,124.1085,52.1073,113.9321,0,U,37839,999,76332,.35863E-4,.335E-5,0
SRMSAT,2011-058D,2026-07-17T11:48:44.276832,14.11581368,.0011702,19.9706,236.0426,176.3977,328.2795,0,U,37841,999,76210,.31755E-4,.324E-5,0
STRAND-1,2013-009E,2026-07-17T11:31:59.747232,14.37179617,.0009516,98.3936,17.9715,134.8937,225.3024,0,U,39090,999,70141,.50178E-4,.107E-5,0
ZACUBE-1 (TSHEPISOSAT),2013-066B,2026-07-17T11:13:00.664320,15.01334450,.0044097,97.8006,160.9527,147.9518,212.4401,0,U,39417,999,68527,.95678E-4,.1193E-4,0
GOMX-1,2013-066Q,2026-07-17T14:56:16.558368,14.69545680,.0128023,97.6461,37.1641,340.3926,19.2381,0,U,39430,999,67438,.98269E-4,.608E-5,0
